{"type": "Feature", "geometry": {"type": "Polygon", "coordinates": [[[-58.455351, -34.527763], [-58.450853, -34.532302], [-58.448682, -34.53734], [-58.444042, -34.536162], [-58.440844, -34.539867], [-58.436033, -34.540453], [-58.431457, -34.544607], [-58.429611, -34.548884], [-58.424208, -34.549268], [-58.425605, -34.552265], [-58.411141, -34.557385], [-58.409435, -34.556678], [-58.410127, -34.558127], [-58.403654, -34.563754], [-58.396836, -34.565123], [-58.397444, -34.566457], [-58.392946, -34.57202], [-58.383416, -34.576173], [-58.391296, -34.570377], [-58.381417, -34.568342], [-58.378155, -34.572782], [-58.383587, -34.573389], [-58.375521, -34.573917], [-58.370773, -34.576623], [-58.376099, -34.577522], [-58.374343, -34.578714], [-58.36789, -34.578229], [-58.36532, -34.579628], [-58.370631, -34.580592], [-58.369039, -34.581741], [-58.361636, -34.581156], [-58.361415, -34.582976], [-58.366162, -34.583533], [-58.359909, -34.584118], [-58.359666, -34.585938], [-58.363692, -34.586231], [-58.363557, -34.58748], [-58.359473, -34.588087], [-58.367896, -34.590026], [-58.364348, -34.594259], [-58.367332, -34.591418], [-58.366368, -34.593017], [-58.367874, -34.592053], [-58.367189, -34.593324], [-58.36913, -34.594052], [-58.367924, -34.597535], [-58.363848, -34.597171], [-58.36415, -34.59522], [-58.356655, -34.594877], [-58.346847, -34.602358], [-58.346019, -34.60647], [-58.340905, -34.610477], [-58.339785, -34.614846], [-58.339881, -34.616274], [-58.345205, -34.61762], [-58.345262, -34.618748], [-58.338366, -34.618705], [-58.336982, -34.622446], [-58.340337, -34.62316], [-58.335146, -34.627067], [-58.339366, -34.628984], [-58.342464, -34.626158], [-58.34422, -34.626343], [-58.341322, -34.628984], [-58.345325, -34.628666], [-58.343101, -34.630238], [-58.345153, -34.632266], [-58.357051, -34.639404], [-58.357455, -34.645415], [-58.3684, -34.651067], [-58.369662, -34.654038], [-58.374052, -34.657194], [-58.384555, -34.657986], [-58.39273, -34.662667], [-58.413421, -34.658811], [-58.423795, -34.662247], [-58.461206, -34.705412], [-58.52888, -34.654627], [-58.531512, -34.615514], [-58.50077, -34.54946], [-58.463532, -34.533399], [-58.458347, -34.526668], [-58.455351, -34.527763]]]}, "properties": {"id": "02", "nombre": "Ciudad Autónoma de Buenos Aires", "nombre_completo": "Ciudad Autónoma de Buenos Aires", "fuente": "IGN", "categoria": "Ciudad Autónoma", "centroide": {"lon": -58.445876325, "lat": -34.614442065}, "iso_id": "AR-C", "iso_nombre": "Ciudad Autónoma de Buenos Aires"}}